STARLINK-4678           
1 53780U 22111H   23264.48868141  .00024008  00000+0  15205-2 0  9995
2 53780  53.2177 355.4758 0001305 107.4103 252.7032 15.08861064 57790
STARLINK-4462           
1 53781U 22111J   23264.53650482  .00026636  00000+0  16846-2 0  9990
2 53781  53.2182 355.0641 0001310  76.5510 283.5628 15.08856380 57808
STARLINK-4679           
1 53782U 22111K   23264.54387131  .00023331  00000+0  14784-2 0  9998
2 53782  53.2188 355.1108 0001239 103.4881 256.6249 15.08859002 57809
STARLINK-4536           
1 53783U 22111L   23264.72784232  .00018983  00000+0  12077-2 0  9992
2 53783  53.2180 354.1260 0001420  86.8807 273.2347 15.08836509 57029
STARLINK-4687           
1 53784U 22111M   23264.67265118  .00004168  00000+0  27965-3 0  9997
2 53784  53.2181 354.4911 0001448  80.7191 279.3965 15.08859036 57018
STARLINK-4631           
1 53786U 22111P   23264.43530284 -.00001133  00000+0 -53121-4 0  9997
2 53786  53.2183 345.2825 0001095  92.1071 268.0047 15.08836460 57939
STARLINK-4743           
1 53787U 22111Q   23264.52174602 -.00002772  00000+0 -15617-3 0  9993
2 53787  53.2177 354.9690 0001299  95.4239 264.6902 15.08834942 57809
STARLINK-4666           
1 53789U 22111S   23264.51070603  .00003278  00000+0  22396-3 0  9992
2 53789  53.2183 354.9060 0001596  60.1731 299.9420 15.08840330 57797
STARLINK-4734           
1 53790U 22111T   23264.52543544  .00001226  00000+0  95093-4 0  9990
2 53790  53.2195 354.9932 0001545  71.9388 288.1772 15.08850819 56996
STARLINK-4739           
1 53792U 22111V   23264.51809444  .00018022  00000+0  11478-2 0  9990
2 53792  53.2189 354.9478 0001474  87.6818 272.4343 15.08830898 56994
STARLINK-4728           
1 53793U 22111W   23264.51535408  .00022514  00000+0  14278-2 0  9999
2 53793  53.2171 354.9325 0001429  63.0568 297.0570 15.08848146 57796
STARLINK-4730           
1 53794U 22111X   23264.45647977  .00020346  00000+0  12923-2 0  9994
2 53794  53.2179 355.2716 0001472  55.9544 304.1588 15.08853260 57786
STARLINK-4742           
1 53795U 22111Y   23264.63950444  .00024507  00000+0  15518-2 0  9997
2 53795  53.2168 354.2874 0001468  57.0851 303.0282 15.08857609 57014
STARLINK-4721           
1 53796U 22111Z   23264.51252796 -.00000571  00000+0 -17758-4 0  9997
2 53796  53.2176 334.8411 0001368  89.6606 270.4543 15.08841413 58107
STARLINK-4723           
1 53797U 22111AA  23264.49596496  .00004665  00000+0  31100-3 0  9995
2 53797  53.2177 354.8113 0001313  77.6359 282.4780 15.08838772 57785
STARLINK-4712           
1 53798U 22111AB  23264.56587700 -.00002692  00000+0 -15101-3 0  9995
2 53798  53.2179 354.5391 0001490  71.7379 288.3775 15.08856317 56981
STARLINK-4710           
1 53799U 22111AC  23264.91668981 -.00030727  00000+0 -19205-2 0  9994
2 53799  53.2165 343.4302 0001056  81.5227 154.6334 15.08846162 57170
STARLINK-4720           
1 53800U 22111AD  23264.46380549 -.00001080  00000+0 -49800-4 0  9994
2 53800  53.2188 345.3389 0001298  85.1037 275.0104 15.08838492 57913
STARLINK-4715           
1 53801U 22111AE  23264.51899728  .00012863  00000+0  82468-3 0  9990
2 53801  53.2186 344.9731 0001636  69.7583 290.3585 15.08846536 57920
STARLINK-4726           
1 53802U 22111AF  23264.45644024  .00007634  00000+0  49712-3 0  9996
2 53802  53.2182 345.2928 0001467  70.7113 289.4038 15.08846636 57914
STARLINK-4727           
1 53803U 22111AG  23264.60319787  .00001549  00000+0  11539-3 0  9994
2 53803  53.2177 329.8111 0001541  82.9929 277.1238 15.08837377 57338
STARLINK-4729           
1 53804U 22111AH  23264.51488296 -.00000513  00000+0 -14124-4 0  9993
2 53804  53.2191 339.9493 0001301 105.3350 254.7786 15.08843130 57188
STARLINK-4763           
1 53805U 22111AJ  23264.47904872  .00012435  00000+0  79775-3 0  9998
2 53805  53.2173 330.4527 0001387 102.3937 257.7211 15.08850995 58123
STARLINK-4768           
1 53806U 22111AK  23264.45229294 -.00002684  00000+0 -15060-3 0  9999
2 53806  53.2166 330.2863 0001439  75.2999 284.8152 15.08833774 58122
BLUEWALKER 3            
1 53807U 22111AL  23264.52743996  .00006581  00000+0  29945-3 0  9993
2 53807  53.2107 352.2189 0011723 357.6568   2.4373 15.21866241 57116
STARLINK-4749           
1 53818U 22114A   23264.61726980  .00019171  00000+0  93954-3 0  9992
2 53818  53.2244  13.4456 0001857  47.8402 312.2752 15.18178976 56574
STARLINK-4738           
1 53819U 22114B   23264.65247227  .00003189  00000+0  21828-3 0  9992
2 53819  53.2184  24.7325 0001254  69.3033 290.8093 15.08850934 56410
STARLINK-4758           
1 53820U 22114C   23264.65519810  .00003647  00000+0  24702-3 0  9997
2 53820  53.2186  24.7501 0001264 102.9323 257.1811 15.08850929 56415
STARLINK-4752           
1 53821U 22114D   23264.47165182 -.00001673  00000+0 -87072-4 0  9996
2 53821  53.2181 330.1701 0001344  94.6009 265.5137 15.08831763 57706
STARLINK-4748           
1 53823U 22114F   23264.49555489  .00017966  00000+0  11436-2 0  9992
2 53823  53.2178 340.2331 0001493  77.4302 282.6857 15.08854361 57567
STARLINK-4757           
1 53824U 22114G   23264.51167820  .00024555  00000+0  15550-2 0  9997
2 53824  53.2185  25.2790 0001170  93.2779 266.8347 15.08852533 56848
STARLINK-4751           
1 53825U 22114H   23264.64784010  .00002625  00000+0  18301-3 0  9990
2 53825  53.2182  24.7032 0001305  68.2225 291.8906 15.08834682 56414
STARLINK-4756           
1 53826U 22114J   23264.69564901  .00023379  00000+0  14810-2 0  9990
2 53826  53.2185  24.2966 0001255 106.3602 253.7528 15.08868826 56421
STARLINK-4764           
1 53827U 22114K   23264.57422890  .00019137  00000+0  12168-2 0  9999
2 53827  53.2186  24.9561 0001186 110.3148 249.7971 15.08852512 56404
STARLINK-4760           
1 53828U 22114L   23264.55948423  .00005915  00000+0  38931-3 0  9999
2 53828  53.2186  24.8674 0001473 106.1569 253.9586 15.08847611 56401
STARLINK-4759           
1 53829U 22114M   23264.57054239  .00014735  00000+0  94175-3 0  9997
2 53829  53.2182  24.9368 0001374  67.0307 293.0830 15.08848819 56941
STARLINK-4761           
1 53830U 22114N   23264.55211777  .00028453  00000+0  17974-2 0  9992
2 53830  53.2182  24.8224 0001263 103.5771 256.5362 15.08864843 56940
STARLINK-4649           
1 53831U 22114P   23264.63309744  .00019392  00000+0  12326-2 0  9992
2 53831  53.2184  24.6170 0001256 108.1398 251.9731 15.08857320 56412
STARLINK-4747           
1 53832U 22114Q   23264.67722542  .00012808  00000+0  82093-3 0  9996
2 53832  53.2188  24.1824 0001477  68.5717 291.5433 15.08858877 56425
STARLINK-4771           
1 53833U 22114R   23264.62204374  .00016673  00000+0  10628-2 0  9998
2 53833  53.2188  24.5471 0001551  66.2633 293.8522 15.08854024 56416
STARLINK-4737           
1 53834U 22114S   23264.73609542  .00023936  00000+0  15156-2 0  9998
2 53834  53.2178  23.8378 0001208  82.4006 277.7123 15.08872127 56431
STARLINK-4783           
1 53835U 22114T   23264.61467150  .00029369  00000+0  18543-2 0  9992
2 53835  53.2178  24.5015 0001156 100.6254 259.4869 15.08868319 56418
STARLINK-4778           
1 53836U 22114U   23264.58619732  .00011259  00000+0  72454-3 0  9995
2 53836  53.2178  15.0442 0001587  69.5458 290.5704 15.08831381 56542
STARLINK-4776           
1 53837U 22114V   23264.60729438  .00003867  00000+0  26082-3 0  9996
2 53837  53.2192  24.4586 0001077  70.8863 289.2246 15.08853951 56410
STARLINK-4773           
1 53838U 22114W   23264.64875652  .00020863  00000+0  13242-2 0  9999
2 53838  53.2187  14.7277 0001328 109.2680 250.8456 15.08863737 56552
STARLINK-4784           
1 53839U 22114X   23264.58988165 -.00002145  00000+0 -11671-3 0  9997
2 53839  53.2198  15.0725 0001501  82.9272 277.1890 15.08841602 56544
STARLINK-4766           
1 53840U 22114Y   23264.70490530  .00016751  00000+0  10677-2 0  9997
2 53840  53.2176  14.3655 0001245  69.8361 290.2765 15.08851609 56561
STARLINK-4750           
1 53841U 22114Z   23264.51258641  .00004446  00000+0  29730-3 0  9991
2 53841  53.2188  15.3014 0001353  95.0878 265.0268 15.08833378 57077
STARLINK-4754           
1 53842U 22114AA  23264.63033496  .00006826  00000+0  44645-3 0  9990
2 53842  53.2182  14.6123 0001311  65.5537 294.5592 15.08848708 56555
STARLINK-4769           
1 53843U 22114AB  23264.70761935  .00004053  00000+0  27248-3 0  9995
2 53843  53.2179  14.3831 0001269  69.0092 291.1036 15.08856455 56567
STARLINK-4745           
1 53844U 22114AC  23264.68919768 -.00000010  00000+0  17458-4 0  9995
2 53844  53.2197  14.2740 0001315  78.8639 281.2501 15.08850739 56569
STARLINK-4753           
1 53845U 22114AD  23264.63402575  .00024373  00000+0  15434-2 0  9991
2 53845  53.2176  14.6558 0001399  58.5081 301.6048 15.08857877 56558
STARLINK-4746           
1 53846U 22114AE  23264.68182818  .00003848  00000+0  25962-3 0  9994
2 53846  53.2180  14.2267 0001212  72.7873 287.3252 15.08852335 56560
STARLINK-4777           
1 53847U 22114AF  23264.62665084  .00018503  00000+0  11771-2 0  9996
2 53847  53.2174  14.5895 0001231 119.2149 240.8967 15.08856101 56559
STARLINK-4780           
1 53848U 22114AG  23264.74070244  .00019806  00000+0  12580-2 0  9994
2 53848  53.2180  13.8837 0001326  62.4796 297.6330 15.08868942 56579
STARLINK-4770           
1 53849U 22114AH  23264.61927479  .00003226  00000+0  22060-3 0  9996
2 53849  53.2184  14.5475 0001331  72.4484 287.6653 15.08849932 56554
STARLINK-4767           
1 53850U 22114AJ  23264.66340875  .00015703  00000+0  10020-2 0  9997
2 53850  53.2187  14.1098 0001299 114.5548 245.5580 15.08857816 56561
STARLINK-4755           
1 53851U 22114AK  23264.54567227  .00020505  00000+0  13021-2 0  9997
2 53851  53.2177  14.7981 0001213 109.3423 250.7700 15.08856890 57089
STARLINK-4797           
1 53852U 22114AL  23264.55903360  .00001269  00000+0  97837-4 0  9996
2 53852  53.2176   9.8982 0002355  44.0026 316.1153 15.08839802 56618
